{"type": "FeatureCollection", "features": [ {"type": "Feature", "properties": {"norad_id": 30649, "name": "FENGYUN 1C DEB", "group": "fengyun-1c-debris", "lat": -79.53108361905488, "lon": -140.7795824756047, "alt_km": 824.9497213581008, "timestamp": "2025-12-26T19:22:39.184555+00:00", "meta": {"OBJECT_NAME": "FENGYUN 1C DEB", "OBJECT_ID": "1999-025APG", "EPOCH": "2025-12-25T05:29:52.058400", "MEAN_MOTION": 14.2963623, "ECCENTRICITY": 0.0050854, "INCLINATION": 98.8086, "RA_OF_ASC_NODE": 94.6781, "ARG_OF_PERICENTER": 136.0066, "MEAN_ANOMALY": 289.3041, "EPHEMERIS_TYPE": 0, "CLASSIFICATION_TYPE": "U", "NORAD_CAT_ID": 30649, "ELEMENT_SET_NO": 999, "REV_AT_EPOCH": 97242, "BSTAR": 0.0017878, "MEAN_MOTION_DOT": 4.601e-05, "MEAN_MOTION_DDOT": 0}, "tle": {"line1": "1 30649U 99025APG 25359.22907475  .00004601  00000+0  17878-2 0  9990", "line2": "2 30649  98.8086  94.6781 0050854 136.0066 289.3041 14.29636230972429"}}, "geometry": {"type": "Point", "coordinates": [-140.7795824756047, -79.53108361905488]}}, {"type": "Feature", "properties": {"norad_id": 30650, "name": "FENGYUN 1C DEB", "group": "fengyun-1c-debris", "lat": -12.936786121168097, "lon": -140.32441083065828, "alt_km": 811.2421106589336, "timestamp": "2025-12-26T19:22:39.184565+00:00", "meta": {"OBJECT_NAME": "FENGYUN 1C DEB", "OBJECT_ID": "1999-025APH", "EPOCH": "2025-12-26T14:06:00.660096", "MEAN_MOTION": 14.14010577, "ECCENTRICITY": 0.00722412, "INCLINATION": 99.2036, "RA_OF_ASC_NODE": 41.5836, "ARG_OF_PERICENTER": 151.4266, "MEAN_ANOMALY": 2.2906, "EPHEMERIS_TYPE": 0, "CLASSIFICATION_TYPE": "U", "NORAD_CAT_ID": 30650, "ELEMENT_SET_NO": 999, "REV_AT_EPOCH": 96494, "BSTAR": 0.0015228765, "MEAN_MOTION_DOT": 2.921e-05, "MEAN_MOTION_DDOT": 0}, "tle": {"line1": "1 30650U 99025APH 25360.58750764  .00002921  00000+0  15229-2 0  9991", "line2": "2 30650  99.2036  41.5836 0072241 151.4266   2.2906 14.14010577964944"}}, "geometry": {"type": "Point", "coordinates": [-140.32441083065828, -12.936786121168097]}}, {"type": "Feature", "properties": {"norad_id": 30652, "name": "FENGYUN 1C DEB", "group": "fengyun-1c-debris", "lat": -56.41278318089782, "lon": 47.02056334413528, "alt_km": 873.0545953119845, "timestamp": "2025-12-26T19:22:39.184575+00:00", "meta": {"OBJECT_NAME": "FENGYUN 1C DEB", "OBJECT_ID": "1999-025APJ", "EPOCH": "2025-12-26T15:05:36.394944", "MEAN_MOTION": 14.07809758, "ECCENTRICITY": 0.00077025, "INCLINATION": 98.7838, "RA_OF_ASC_NODE": 33.3833, "ARG_OF_PERICENTER": 221.79, "MEAN_ANOMALY": 256.5602, "EPHEMERIS_TYPE": 0, "CLASSIFICATION_TYPE": "U", "NORAD_CAT_ID": 30652, "ELEMENT_SET_NO": 999, "REV_AT_EPOCH": 96889, "BSTAR": 0.00016874323, "MEAN_MOTION_DOT": 2.43e-06, "MEAN_MOTION_DDOT": 0}, "tle": {"line1": "1 30652U 99025APJ 25360.62889346  .00000243  00000+0  16874-3 0  9990", "line2": "2 30652  98.7838  33.3833 0007702 221.7900 256.5602 14.07809758968896"}}, "geometry": {"type": "Point", "coordinates": [47.02056334413528, -56.41278318089782]}}, {"type": "Feature", "properties": {"norad_id": 30654, "name": "FENGYUN 1C DEB", "group": "fengyun-1c-debris", "lat": 59.399848254338494, "lon": -91.38587197934632, "alt_km": 803.3176372342514, "timestamp": "2025-12-26T19:22:39.184586+00:00", "meta": {"OBJECT_NAME": "FENGYUN 1C DEB", "OBJECT_ID": "1999-025APL", "EPOCH": "2025-12-25T17:40:36.744096", "MEAN_MOTION": 14.17152644, "ECCENTRICITY": 0.0035895, "INCLINATION": 99.2427, "RA_OF_ASC_NODE": 283.4835, "ARG_OF_PERICENTER": 60.7512, "MEAN_ANOMALY": 299.7243, "EPHEMERIS_TYPE": 0, "CLASSIFICATION_TYPE": "U", "NORAD_CAT_ID": 30654, "ELEMENT_SET_NO": 999, "REV_AT_EPOCH": 96864, "BSTAR": 0.0011193617, "MEAN_MOTION_DOT": 2.223e-05, "MEAN_MOTION_DDOT": 0}, "tle": {"line1": "1 30654U 99025APL 25359.73653639  .00002223  00000+0  11194-2 0  9995", "line2": "2 30654  99.2427 283.4835 0035895  60.7512 299.7243 14.17152644968641"}}, "geometry": {"type": "Point", "coordinates": [-91.38587197934632, 59.399848254338494]}}, {"type": "Feature", "properties": {"norad_id": 30656, "name": "FENGYUN 1C DEB", "group": "fengyun-1c-debris", "lat": -21.731306896751068, "lon": -7.851689387811861, "alt_km": 765.3788419298398, "timestamp": "2025-12-26T19:22:39.184596+00:00", "meta": {"OBJECT_NAME": "FENGYUN 1C DEB", "OBJECT_ID": "1999-025APN", "EPOCH": "2025-12-26T10:08:31.448544", "MEAN_MOTION": 14.45550566, "ECCENTRICITY": 0.00301174, "INCLINATION": 99.0189, "RA_OF_ASC_NODE": 175.3692, "ARG_OF_PERICENTER": 44.8694, "MEAN_ANOMALY": 315.4923, "EPHEMERIS_TYPE": 0, "CLASSIFICATION_TYPE": "U", "NORAD_CAT_ID": 30656, "ELEMENT_SET_NO": 999, "REV_AT_EPOCH": 97283, "BSTAR": 0.002443086, "MEAN_MOTION_DOT": 8.631e-05, "MEAN_MOTION_DDOT": 0}, "tle": {"line1": "1 30656U 99025APN 25360.42258621  .00008631  00000+0  24431-2 0  9994", "line2": "2 30656  99.0189 175.3692 0030117  44.8694 315.4923 14.45550566972835"}}, "geometry": {"type": "Point", "coordinates": [-7.851689387811861, -21.731306896751068]}}, {"type": "Feature", "properties": {"norad_id": 30657, "name": "FENGYUN 1C DEB", "group": "fengyun-1c-debris", "lat": -23.370819781740234, "lon": 103.10780245980358, "alt_km": 758.2085911649965, "timestamp": "2025-12-26T19:22:39.184606+00:00", "meta": {"OBJECT_NAME": "FENGYUN 1C DEB", "OBJECT_ID": "1999-025APP", "EPOCH": "2025-12-26T06:23:33.625824", "MEAN_MOTION": 14.3876369, "ECCENTRICITY": 0.00170797, "INCLINATION": 98.8367, "RA_OF_ASC_NODE": 98.6963, "ARG_OF_PERICENTER": 301.2301, "MEAN_ANOMALY": 114.3652, "EPHEMERIS_TYPE": 0, "CLASSIFICATION_TYPE": "U", "NORAD_CAT_ID": 30657, "ELEMENT_SET_NO": 999, "REV_AT_EPOCH": 97427, "BSTAR": 0.0022050398, "MEAN_MOTION_DOT": 6.744e-05, "MEAN_MOTION_DDOT": 0}, "tle": {"line1": "1 30657U 99025APP 25360.26636141  .00006744  00000+0  22050-2 0  9992", "line2": "2 30657  98.8367  98.6963 0017079 301.2301 114.3652 14.38763690974277"}}, "geometry": {"type": "Point", "coordinates": [103.10780245980358, -23.370819781740234]}}, {"type": "Feature", "properties": {"norad_id": 30658, "name": "FENGYUN 1C DEB", "group": "fengyun-1c-debris", "lat": 47.6322997216426, "lon": -138.73865758593476, "alt_km": 859.810184730788, "timestamp": "2025-12-26T19:22:39.184616+00:00", "meta": {"OBJECT_NAME": "FENGYUN 1C DEB", "OBJECT_ID": "1999-025APQ", "EPOCH": "2025-12-25T01:11:26.704896", "MEAN_MOTION": 13.87255911, "ECCENTRICITY": 0.01843789, "INCLINATION": 98.4383, "RA_OF_ASC_NODE": 30.3063, "ARG_OF_PERICENTER": 193.99, "MEAN_ANOMALY": 165.6112, "EPHEMERIS_TYPE": 0, "CLASSIFICATION_TYPE": "U", "NORAD_CAT_ID": 30658, "ELEMENT_SET_NO": 999, "REV_AT_EPOCH": 94855, "BSTAR": 0.0016184106, "MEAN_MOTION_DOT": 2.138e-05, "MEAN_MOTION_DDOT": 0}, "tle": {"line1": "1 30658U 99025APQ 25359.04961464  .00002138  00000+0  16184-2 0  9990", "line2": "2 30658  98.4383  30.3063 0184378 193.9900 165.6112 13.87255911948551"}}, "geometry": {"type": "Point", "coordinates": [-138.73865758593476, 47.6322997216426]}}, {"type": "Feature", "properties": {"norad_id": 30660, "name": "FENGYUN 1C DEB", "group": "fengyun-1c-debris", "lat": -80.07012411898084, "lon": -137.1959154247905, "alt_km": 525.2859635474488, "timestamp": "2025-12-26T19:22:39.184627+00:00", "meta": {"OBJECT_NAME": "FENGYUN 1C DEB", "OBJECT_ID": "1999-025APS", "EPOCH": "2025-12-25T18:39:46.716192", "MEAN_MOTION": 14.87690706, "ECCENTRICITY": 0.01363116, "INCLINATION": 98.1384, "RA_OF_ASC_NODE": 96.5751, "ARG_OF_PERICENTER": 291.6649, "MEAN_ANOMALY": 221.4371, "EPHEMERIS_TYPE": 0, "CLASSIFICATION_TYPE": "U", "NORAD_CAT_ID": 30660, "ELEMENT_SET_NO": 999, "REV_AT_EPOCH": 978, "BSTAR": 0.0006985505, "MEAN_MOTION_DOT": 7.49e-05, "MEAN_MOTION_DDOT": 0}, "tle": {"line1": "1 30660U 99025APS 25359.77762403  .00007490  00000+0  69855-3 0  9995", "line2": "2 30660  98.1384  96.5751 0136311 291.6649 221.4371 14.87690706  9787"}}, "geometry": {"type": "Point", "coordinates": [-137.1959154247905, -80.07012411898084]}}, {"type": "Feature", "properties": {"norad_id": 30661, "name": "FENGYUN 1C DEB", "group": "fengyun-1c-debris", "lat": -14.39547142896361, "lon": -4.934283245968367, "alt_km": 928.7552141051965, "timestamp": "2025-12-26T19:22:39.184637+00:00", "meta": {"OBJECT_NAME": "FENGYUN 1C DEB", "OBJECT_ID": "1999-025APT", "EPOCH": "2025-12-26T04:56:51.064512", "MEAN_MOTION": 14.21150391, "ECCENTRICITY": 0.01442616, "INCLINATION": 99.487, "RA_OF_ASC_NODE": 176.8801, "ARG_OF_PERICENTER": 7.7548, "MEAN_ANOMALY": 352.581, "EPHEMERIS_TYPE": 0, "CLASSIFICATION_TYPE": "U", "NORAD_CAT_ID": 30661, "ELEMENT_SET_NO": 999, "REV_AT_EPOCH": 98093, "BSTAR": 0.00013249566, "MEAN_MOTION_DOT": 2.69e-06, "MEAN_MOTION_DDOT": 0}, "tle": {"line1": "1 30661U 99025APT 25360.20614658  .00000269  00000+0  13250-3 0  9999", "line2": "2 30661  99.4870 176.8801 0144261   7.7548 352.5810 14.21150391980935"}}, "geometry": {"type": "Point", "coordinates": [-4.934283245968367, -14.39547142896361]}}, {"type": "Feature", "properties": {"norad_id": 30662, "name": "FENGYUN 1C DEB", "group": "fengyun-1c-debris", "lat": -52.96164568249092, "lon": 69.65405449339153, "alt_km": 817.7546875975722, "timestamp": "2025-12-26T19:22:39.184647+00:00", "meta": {"OBJECT_NAME": "FENGYUN 1C DEB", "OBJECT_ID": "1999-025APU", "EPOCH": "2025-12-26T02:53:27.808800", "MEAN_MOTION": 14.22441449, "ECCENTRICITY": 0.00339157, "INCLINATION": 99.0513, "RA_OF_ASC_NODE": 56.7538, "ARG_OF_PERICENTER": 232.8118, "MEAN_ANOMALY": 157.2566, "EPHEMERIS_TYPE": 0, "CLASSIFICATION_TYPE": "U", "NORAD_CAT_ID": 30662, "ELEMENT_SET_NO": 999, "REV_AT_EPOCH": 96829, "BSTAR": 0.0014192389, "MEAN_MOTION_DOT": 3.135e-05, "MEAN_MOTION_DDOT": 0}, "tle": {"line1": "1 30662U 99025APU 25360.12046075  .00003135  00000+0  14192-2 0  9993", "line2": "2 30662  99.0513  56.7538 0033915 232.8118 157.2566 14.22441449968297"}}, "geometry": {"type": "Point", "coordinates": [69.65405449339153, -52.96164568249092]}}]}